ORBCOMM FM115           
1 41186U 15081H   25327.14221026  .00000815  00000+0  19216-3 0  9997
2 41186  47.0001   3.3860 0000354 324.1913  35.8951 14.62862135531041
ORBCOMM FM108           
1 41187U 15081J   25327.32632013  .00000976  00000+0  24452-3 0  9996
2 41187  47.0045  75.2502 0002736 307.2369  52.8267 14.58501824530020
ORBCOMM FM117           
1 41188U 15081K   25327.29262091  .00000757  00000+0  19773-3 0  9995
2 41188  47.0015  74.1199 0003071 317.0937  42.9709 14.58512806530068
ORBCOMM FM116           
1 41189U 15081L   25325.97198790  .00000637  00000+0  17187-3 0  9997
2 41189  47.0008 170.1389 0001796 177.8858 182.2036 14.58599544528685
